{"type":"FeatureCollection","name":"Bloklu pafta","crs":{"type":"name","properties":{"name":"urn:ogc:def:crs:EPSG::5256"}},"features":[
{"type":"Feature","properties":{"Derinlik":"2.40","No":"R-12"},"geometry":{"type":"GeometryCollection","geometries":[{"type":"LineString","coordinates":[[512346.1,4423456.25],[512346.09771681885,4423456.302293446],[512346.0908846518,4423456.354188907],[512346.07955549576,4423456.405291427],[512346.0638155725,4423456.455212086],[512346.0437846722,4423456.503570957],[512346.01961524226,4423456.55],[512345.9914912266,4423456.594145861],[512345.95962666586,4423456.635672566],[512345.9242640687,4423456.674264069],[512345.88567256584,4423456.709626666],[512345.8441458618,4423456.7414912265],[512345.8,4423456.769615242],[512345.75357095705,4423456.793784672],[512345.705212086,4423456.813815572],[512345.65529142704,4423456.829555496],[512345.6041889066,4423456.840884652],[512345.5522934456,4423456.847716819],[512345.5,4423456.85],[512345.4477065544,4423456.847716819],[512345.3958110934,4423456.840884652],[512345.34470857296,4423456.829555496],[512345.294787914,4423456.813815572],[512345.24642904295,4423456.793784672],[512345.2,4423456.769615242],[512345.1558541382,4423456.7414912265],[512345.11432743416,4423456.709626666],[512345.0757359313,4423456.674264069],[512345.04037333414,4423456.635672566],[512345.0085087734,4423456.594145861],[512344.98038475774,4423456.55],[512344.9562153278,4423456.503570957],[512344.9361844275,4423456.455212086],[512344.92044450424,4423456.405291427],[512344.9091153482,4423456.354188907],[512344.90228318115,4423456.302293446],[512344.9,4423456.25],[512344.90228318115,4423456.197706554],[512344.9091153482,4423456.145811093],[512344.92044450424,4423456.094708573],[512344.9361844275,4423456.044787914],[512344.9562153278,4423455.996429043],[512344.98038475774,4423455.95],[512345.0085087734,4423455.905854139],[512345.04037333414,4423455.864327434],[512345.0757359313,4423455.825735931],[512345.11432743416,4423455.790373334],[512345.1558541382,4423455.7585087735],[512345.2,4423455.730384758],[512345.24642904295,4423455.706215328],[512345.294787914,4423455.686184428],[512345.34470857296,4423455.670444504],[512345.3958110934,4423455.659115348],[512345.4477065544,4423455.652283181],[512345.5,4423455.65],[512345.5522934456,4423455.652283181],[512345.6041889066,4423455.659115348],[512345.65529142704,4423455.670444504],[512345.705212086,4423455.686184428],[512345.75357095705,4423455.706215328],[512345.8,4423455.730384758],[512345.8441458618,4423455.7585087735],[512345.88567256584,4423455.790373334],[512345.9242640687,4423455.825735931],[512345.95962666586,4423455.864327434],[512345.9914912266,4423455.905854139],[512346.01961524226,4423455.95],[512346.0437846722,4423455.996429043],[512346.0638155725,4423456.044787914],[512346.07955549576,4423456.094708573],[512346.0908846518,4423456.145811093],[512346.09771681885,4423456.197706554],[512346.1,4423456.25]]},{"type":"LineString","coordinates":[[512344.9,4423456.25],[512346.1,4423456.25]]}]},"kentos":{"layer":"Altyapı","label":"R-12"}},
{"type":"Feature","properties":{"Tür":"Aydınlatma"},"geometry":{"type":"GeometryCollection","geometries":[{"type":"Point","coordinates":[512400.125,4423500.5]},{"type":"LineString","coordinates":[[512400.125,4423500.5],[512412.125,4423500.5],[512413.125,4423504.5]]},{"type":"Polygon","coordinates":[[[512398.125,4423498.5],[512402.125,4423498.5],[512402.125,4423502.5],[512398.125,4423502.5],[512398.125,4423498.5]],[[512399.125,4423499.5],[512399.125,4423501.5],[512401.125,4423501.5],[512399.125,4423499.5]]]},{"type":"LineString","coordinates":[[512413.725,4423504.5],[512413.72271681885,4423504.552293446],[512413.7158846518,4423504.604188907],[512413.70455549576,4423504.655291427],[512413.6888155725,4423504.705212086],[512413.6687846722,4423504.753570957],[512413.64461524226,4423504.8],[512413.6164912266,4423504.844145861],[512413.58462666586,4423504.885672566],[512413.5492640687,4423504.924264069],[512413.51067256584,4423504.959626666],[512413.4691458618,4423504.9914912265],[512413.425,4423505.019615242],[512413.37857095705,4423505.043784672],[512413.330212086,4423505.063815572],[512413.28029142704,4423505.079555496],[512413.2291889066,4423505.090884652],[512413.1772934456,4423505.097716819],[512413.125,4423505.1],[512413.0727065544,4423505.097716819],[512413.0208110934,4423505.090884652],[512412.96970857296,4423505.079555496],[512412.919787914,4423505.063815572],[512412.87142904295,4423505.043784672],[512412.825,4423505.019615242],[512412.7808541382,4423504.9914912265],[512412.73932743416,4423504.959626666],[512412.7007359313,4423504.924264069],[512412.66537333414,4423504.885672566],[512412.6335087734,4423504.844145861],[512412.60538475774,4423504.8],[512412.5812153278,4423504.753570957],[512412.5611844275,4423504.705212086],[512412.54544450424,4423504.655291427],[512412.5341153482,4423504.604188907],[512412.52728318115,4423504.552293446],[512412.525,4423504.5],[512412.52728318115,4423504.447706554],[512412.5341153482,4423504.395811093],[512412.54544450424,4423504.344708573],[512412.5611844275,4423504.294787914],[512412.5812153278,4423504.246429043],[512412.60538475774,4423504.2],[512412.6335087734,4423504.155854139],[512412.66537333414,4423504.114327434],[512412.7007359313,4423504.075735931],[512412.73932743416,4423504.040373334],[512412.7808541382,4423504.0085087735],[512412.825,4423503.980384758],[512412.87142904295,4423503.956215328],[512412.919787914,4423503.936184428],[512412.96970857296,4423503.920444504],[512413.0208110934,4423503.909115348],[512413.0727065544,4423503.902283181],[512413.125,4423503.9],[512413.1772934456,4423503.902283181],[512413.2291889066,4423503.909115348],[512413.28029142704,4423503.920444504],[512413.330212086,4423503.936184428],[512413.37857095705,4423503.956215328],[512413.425,4423503.980384758],[512413.4691458618,4423504.0085087735],[512413.51067256584,4423504.040373334],[512413.5492640687,4423504.075735931],[512413.58462666586,4423504.114327434],[512413.6164912266,4423504.155854139],[512413.64461524226,4423504.2],[512413.6687846722,4423504.246429043],[512413.6888155725,4423504.294787914],[512413.70455549576,4423504.344708573],[512413.7158846518,4423504.395811093],[512413.72271681885,4423504.447706554],[512413.725,4423504.5]]},{"type":"LineString","coordinates":[[512412.525,4423504.5],[512413.725,4423504.5]]}]},"kentos":{"layer":"Altyapı"}},
{"type":"Feature","properties":{},"geometry":{"type":"GeometryCollection","geometries":[{"type":"Point","coordinates":[512410,4423510]},{"type":"LineString","coordinates":[[512410,4423510],[512407.34031814005,4423518.598028402],[512409.98468745244,4423520.201091389]]},{"type":"Polygon","coordinates":[[[512409.0102755763,4423508.123714956],[512411.87628504366,4423509.010275576],[512410.9897244237,4423511.876285044],[512408.12371495634,4423510.989724424],[512409.0102755763,4423508.123714956]],[[512409.50513778813,4423509.061857478],[512410.49486221187,4423510.938142522],[512410.93814252183,4423509.505137788],[512409.50513778813,4423509.061857478]]]},{"type":"LineString","coordinates":[[512410.43468745245,4423520.201091389],[512410.4329750666,4423520.240311474],[512410.4278509413,4423520.279233069],[512410.4193540743,4423520.317559959],[512410.4075491318,4423520.355000454],[512410.3925259566,4423520.391269607],[512410.37439888413,4423520.426091389],[512410.35330587236,4423520.4592007855],[512410.32940745185,4423520.490345813],[512410.302885504,4423520.5192894405],[512410.2739418768,4423520.545811389],[512410.2427968488,4423520.5697098095],[512410.2096874524,4423520.590802821],[512410.1748656702,4423520.608929893],[512410.1385965169,4423520.623953069],[512410.10115602275,4423520.635758011],[512410.06282913237,4423520.644254878],[512410.0239075367,4423520.649379003],[512409.98468745244,4423520.651091389],[512409.9454673682,4423520.649379003],[512409.9065457725,4423520.644254878],[512409.8682188821,4423520.635758011],[512409.83077838796,4423520.623953069],[512409.79450923466,4423520.608929893],[512409.75968745246,4423520.590802821],[512409.72657805606,4423520.5697098095],[512409.6954330281,4423520.545811389],[512409.6664894009,4423520.5192894405],[512409.639967453,4423520.490345813],[512409.6160690325,4423520.4592007855],[512409.59497602074,4423520.426091389],[512409.57684894826,4423520.391269607],[512409.5618257731,4423520.355000454],[512409.5500208306,4423520.317559959],[512409.54152396356,4423520.279233069],[512409.5363998383,4423520.240311474],[512409.5346874524,4423520.201091389],[512409.5363998383,4423520.161871305],[512409.54152396356,4423520.122949709],[512409.5500208306,4423520.084622819],[512409.5618257731,4423520.047182324],[512409.57684894826,4423520.010913172],[512409.59497602074,4423519.97609139],[512409.6160690325,4423519.942981993],[512409.639967453,4423519.911836965],[512409.6664894009,4423519.882893338],[512409.6954330281,4423519.85637139],[512409.72657805606,4423519.832472969],[512409.75968745246,4423519.811379957],[512409.79450923466,4423519.793252885],[512409.83077838796,4423519.77822971],[512409.8682188821,4423519.766424768],[512409.9065457725,4423519.7579279],[512409.9454673682,4423519.7528037755],[512409.98468745244,4423519.751091389],[512410.0239075367,4423519.7528037755],[512410.06282913237,4423519.7579279],[512410.10115602275,4423519.766424768],[512410.1385965169,4423519.77822971],[512410.1748656702,4423519.793252885],[512410.2096874524,4423519.811379957],[512410.2427968488,4423519.832472969],[512410.2739418768,4423519.85637139],[512410.302885504,4423519.882893338],[512410.32940745185,4423519.911836965],[512410.35330587236,4423519.942981993],[512410.37439888413,4423519.97609139],[512410.3925259566,4423520.010913172],[512410.4075491318,4423520.047182324],[512410.4193540743,4423520.084622819],[512410.4278509413,4423520.122949709],[512410.4329750666,4423520.161871305],[512410.43468745245,4423520.201091389]]},{"type":"LineString","coordinates":[[512410.1176715454,4423519.771189969],[512409.85170335945,4423520.630992809]]}]},"kentos":{"layer":"Altyapı"}},
{"type":"Feature","properties":{},"geometry":{"type":"GeometryCollection","geometries":[{"type":"LineString","coordinates":[[512420,4423519],[512422,4423519]]}]},"kentos":{"layer":"Çizim"}},
{"type":"Feature","properties":{},"geometry":{"type":"Point","coordinates":[512450,4423550]},"kentos":{"layer":"Çizim"}}
]}
