{"type":"FeatureCollection","name":"Çok parçalı çizgiler","crs":{"type":"name","properties":{"name":"urn:ogc:def:crs:EPSG::5256"}},"features":[
{"type":"Feature","properties":{"ad":"Şerit çizgisi"},"geometry":{"type":"MultiLineString","coordinates":[[[486500,4420100,100],[486510,4420100,101.25],[486510,4420110.5]],[[486520.125,4420100],[486530.75,4420100]],[[486540,4420100,90],[486540.66700921714,4420099.184635724,90.0909090909091],[486541.40030328796,4420098.428328904,90.18181818181819],[486542.1946742045,4420097.7364509925,90.27272727272727],[486543.0444801783,4420097.113915849,90.36363636363636],[486543.94368570944,4420096.565144847,90.45454545454545],[486544.88590445207,4420096.0940354755,90.54545454545455],[486545.86444457155,4420095.703933652,90.63636363636364],[486546.87235627114,4420095.397609959,90.72727272727273],[486547.902481151,4420095.177239973,90.81818181818181],[486548.9475030487,4420095.044388808,90.9090909090909],[486550,4420095,91],[486551.0524969513,4420095.044388808,91.0909090909091],[486552.097518849,4420095.177239973,91.18181818181819],[486553.12764372886,4420095.397609959,91.27272727272727],[486554.13555542845,4420095.703933652,91.36363636363636],[486555.11409554793,4420096.0940354755,91.45454545454545],[486556.05631429056,4420096.565144847,91.54545454545455],[486556.9555198217,4420097.113915849,91.63636363636364],[486557.8053257955,4420097.7364509925,91.72727272727273],[486558.59969671204,4420098.428328904,91.81818181818181],[486559.33299078286,4420099.184635724,91.9090909090909],[486560,4420100,92],[486560,4420120,94]]]},"kentos":{"layer":"Yollar","label":"Y-1"}},
{"type":"Feature","properties":{"tur":"tek parca"},"geometry":{"type":"LineString","coordinates":[[486600,4420100],[486610,4420105],[486620,4420100]]},"kentos":{"layer":"Yollar"}},
{"type":"Feature","properties":{"ad":"Kuyu"},"geometry":{"type":"MultiPoint","coordinates":[[486500,4420200,850.5],[486510.25,4420200],[486520,4420210.75,851]]},"kentos":{"layer":"Noktalar","label":"K-1"}},
{"type":"Feature","properties":{},"geometry":{"type":"Point","coordinates":[486600,4420200]},"kentos":{"layer":"Noktalar"}}
]}
