{"type":"FeatureCollection","name":"Karma pafta \"B\"","crs":{"type":"name","properties":{"name":"urn:ogc:def:crs:EPSG::5256"}},"features":[
{"type":"Feature","properties":{"Ad":"P1","Kot":"105.20","Not":"tırnak \" ve ters bölü \\"},"geometry":{"type":"Point","coordinates":[512345.678,4423456.789,105.2]},"kentos":{"layer":"Kot noktaları","label":"P1"}},
{"type":"Feature","properties":{},"geometry":{"type":"Point","coordinates":[512400.125,4423500.5]},"kentos":{"layer":"Kot noktaları"}},
{"type":"Feature","properties":{"tur":"sınır"},"geometry":{"type":"LineString","coordinates":[[512300,4423400],[512310.5,4423410.25]]},"kentos":{"layer":"Kot noktaları"}},
{"type":"Feature","properties":{},"geometry":{"type":"LineString","coordinates":[[512000,4423000],[512010,4423005],[512020,4423000.000000001]]},"kentos":{"layer":"Kot noktaları"}},
{"type":"Feature","properties":{"ada":"101","parsel":"7"},"geometry":{"type":"Polygon","coordinates":[[[512100,4423100],[512150,4423100],[512150,4423140],[512100,4423140],[512100,4423100]],[[512110,4423110],[512110,4423120],[512120,4423120],[512120,4423110],[512110,4423110]]]},"kentos":{"layer":"Parseller","label":"101/7"}},
{"type":"Feature","properties":{"ada":"101","parsel":"8"},"geometry":{"type":"Polygon","coordinates":[[[512200,4423100],[512240,4423100],[512240,4423130],[512200,4423130],[512200,4423100]]]},"kentos":{"layer":"Parseller"}},
{"type":"Feature","properties":{},"geometry":{"type":"Polygon","coordinates":[[[512300,4423100],[512340,4423100],[512341.1874575772,4423101.289922787],[512342.2643384053,4423102.673499303],[512343.2232862962,4423104.141278318],[512344.0577506636,4423105.683233413],[512344.7620312696,4423107.28883147],[512345.33131716365,4423108.947104627],[512345.76171954576,4423110.646725198],[512346.0502983313,4423112.376083049],[512346.1950822345,4423114.123364914],[512346.1950822345,4423115.876635086],[512346.0502983313,4423117.623916951],[512345.76171954576,4423119.353274802],[512345.33131716365,4423121.052895373],[512344.7620312696,4423122.71116853],[512344.0577506636,4423124.316766587],[512343.2232862962,4423125.858721682],[512342.2643384053,4423127.326500697],[512341.1874575772,4423128.710077213],[512340,4423130],[512300,4423100]]]},"kentos":{"layer":"Parseller"}},
{"type":"Feature","properties":{},"geometry":{"type":"LineString","coordinates":[[512400,4423100],[512400.0380530191,4423099.128442572],[512400.1519224699,4423098.263518224],[512400.3407417371,4423097.411809549],[512400.6030737921,4423096.579798567],[512400.93692212965,4423095.773817383],[512401.3397459622,4423095],[512401.8084795571,4423094.264235636],[512402.3395555688,4423093.572123903],[512402.92893218814,4423092.928932188],[512403.57212390314,4423092.339555569],[512404.2642356365,4423091.808479557],[512405,4423091.339745962],[512405.7738173826,4423090.936922129],[512406.57979856676,4423090.6030737925],[512407.41180954897,4423090.340741737],[512408.2635182233,4423090.15192247],[512409.12844257255,4423090.038053019],[512410,4423090],[512410.87155742745,4423090.038053019],[512411.7364817767,4423090.15192247],[512412.58819045103,4423090.340741737],[512413.42020143324,4423090.6030737925],[512414.2261826174,4423090.936922129],[512415,4423091.339745962],[512415.7357643635,4423091.808479557],[512416.42787609686,4423092.339555569],[512417.07106781186,4423092.928932188],[512417.6604444312,4423093.572123903],[512418.1915204429,4423094.264235636],[512418.6602540378,4423095],[512419.06307787035,4423095.773817383],[512419.3969262079,4423096.579798567],[512419.6592582629,4423097.411809549],[512419.8480775301,4423098.263518224],[512419.9619469809,4423099.128442572],[512420,4423100],[512420,4423120]]},"kentos":{"layer":"Eğriler"}},
{"type":"Feature","properties":{"cap":"4"},"geometry":{"type":"LineString","coordinates":[[512502,4423200],[512501.9923893962,4423200.174311485],[512501.969615506,4423200.347296355],[512501.93185165257,4423200.51763809],[512501.8793852416,4423200.684040287],[512501.81261557405,4423200.845236523],[512501.73205080756,4423201],[512501.63830408856,4423201.147152873],[512501.53208888625,4423201.285575219],[512501.4142135624,4423201.414213562],[512501.2855752194,4423201.532088886],[512501.1471528727,4423201.638304088],[512501,4423201.732050807],[512500.8452365235,4423201.812615574],[512500.68404028664,4423201.879385241],[512500.5176380902,4423201.931851652],[512500.34729635535,4423201.969615506],[512500.1743114855,4423201.992389396],[512500,4423202],[512499.8256885145,4423201.992389396],[512499.65270364465,4423201.969615506],[512499.4823619098,4423201.931851652],[512499.31595971336,4423201.879385241],[512499.1547634765,4423201.812615574],[512499,4423201.732050807],[512498.8528471273,4423201.638304088],[512498.7144247806,4423201.532088886],[512498.5857864376,4423201.414213562],[512498.46791111375,4423201.285575219],[512498.36169591144,4423201.147152873],[512498.26794919244,4423201],[512498.18738442595,4423200.845236523],[512498.1206147584,4423200.684040287],[512498.06814834743,4423200.51763809],[512498.030384494,4423200.347296355],[512498.0076106038,4423200.174311485],[512498,4423200],[512498.0076106038,4423199.825688515],[512498.030384494,4423199.652703645],[512498.06814834743,4423199.48236191],[512498.1206147584,4423199.315959713],[512498.18738442595,4423199.154763477],[512498.26794919244,4423199],[512498.36169591144,4423198.852847127],[512498.46791111375,4423198.714424781],[512498.5857864376,4423198.585786438],[512498.7144247806,4423198.467911114],[512498.8528471273,4423198.361695912],[512499,4423198.267949193],[512499.1547634765,4423198.187384426],[512499.31595971336,4423198.120614759],[512499.4823619098,4423198.068148348],[512499.65270364465,4423198.030384494],[512499.8256885145,4423198.007610604],[512500,4423198],[512500.1743114855,4423198.007610604],[512500.34729635535,4423198.030384494],[512500.5176380902,4423198.068148348],[512500.68404028664,4423198.120614759],[512500.8452365235,4423198.187384426],[512501,4423198.267949193],[512501.1471528727,4423198.361695912],[512501.2855752194,4423198.467911114],[512501.4142135624,4423198.585786438],[512501.53208888625,4423198.714424781],[512501.63830408856,4423198.852847127],[512501.73205080756,4423199],[512501.81261557405,4423199.154763477],[512501.8793852416,4423199.315959713],[512501.93185165257,4423199.48236191],[512501.969615506,4423199.652703645],[512501.9923893962,4423199.825688515],[512502,4423200]]},"kentos":{"layer":"Eğriler"}},
{"type":"Feature","properties":{},"geometry":{"type":"LineString","coordinates":[[512555.32901831943,4423201.360721776],[512555.1972632047,4423201.799570832],[512555.0294368663,4423202.225930099],[512554.8267040904,4423202.636840463],[512554.59047192906,4423203.029450027],[512554.32237993425,4423203.4010339165],[512554.02428877883,4423203.74901318],[512553.69826734246,4423204.070972692],[512553.3465783531,4423204.364677918],[512552.97166268225,4423204.628090416],[512552.5761224048,4423204.859381993],[512552.1627027388,4423205.056947386],[512551.73427299317,4423205.219415407],[512551.2938066532,4423205.345658458],[512550.84436074307,4423205.4348003585],[512550.3890546092,4423205.486222426],[512549.9310482703,4423205.49956777],[512549.4735204859,4423205.474743768],[512549.01964669395,4423205.411922708],[512548.5725769721,4423205.311540595],[512548.135414175,4423205.174294126],[512547.711192399,4423205.0011358475]]},"kentos":{"layer":"Eğriler"}},
{"type":"Feature","properties":{},"geometry":{"type":"LineString","coordinates":[[512608,4423202],[512607.94876638526,4423202.172573992],[512607.882401842,4423202.341012367],[512607.8010326988,4423202.504994492],[512607.70481384645,4423202.664208217],[512607.593928443,4423202.81835047],[512607.46858756524,4423202.967127833],[512607.3290298065,4423203.1102571],[512607.17552082293,4423203.247465814],[512607.00835282775,4423203.378492795],[512606.8278440346,4423203.503088621],[512606.6343380522,4423203.62101612],[512606.42820323026,4423203.732050807],[512606.2098319582,4423203.835981325],[512605.97963991796,4423203.932609834],[512605.7380652933,4423204.021752397],[512605.4855679352,4423204.103239325],[512605.22262848687,4423204.176915504],[512604.9497474683,4423204.242640687],[512604.6674443241,4423204.300289763],[512604.37625643436,4423204.349752991],[512604.07673809177,4423204.390936219],[512603.7694594465,4423204.42376105],[512603.45500542095,4423204.4481649995],[512603.1339745962,4423204.464101615],[512602.8069780727,4423204.471540559],[512602.4746383069,4423204.470467671],[512602.1375879264,4423204.460884995],[512601.79646852583,4423204.44281077],[512601.4519294453,4423204.416279402],[512601.10462653456,4423204.381341395],[512600.7552209044,4423204.338063257],[512600.40437766834,4423204.286527367],[512600.05276467634,4423204.226831829],[512599.7010512439,4423204.159090278],[512599.3499068774,4423204.083431661],[512599,4423204],[512598.6519966795,4423203.908954112],[512598.30655935995,4423203.810467307],[512597.96434560086,4423203.704727061],[512597.62600682565,4423203.591934657],[512597.29218708136,4423203.4723048005],[512596.96352181287,4423203.346065215],[512596.64063665323,4423203.213456204],[512596.3241462326,4423203.074730197],[512596.0146530086,4423202.930151266],[512595.712746119,4423202.779994625],[512595.41900026094,4423202.624546107],[512595.1339745962,4423202.464101615],[512594.8582116874,4423202.298966566],[512594.5922364649,4423202.129455305],[512594.33655522764,4423201.955890504],[512594.0916546794,4423201.778602553],[512593.8580010022,4423201.597928932],[512593.6360389693,4423201.414213562],[512593.4261910979,4423201.2278061565],[512593.22885684535,4423201.039061553],[512593.04441184865,4423200.848339036],[512592.8732072093,4423200.656001657],[512592.71556882514,4423200.4624155415],[512592.57179676974,4423200.267949193],[512592.4421647214,4423200.072972787],[512592.326919442,4423199.877857473],[512592.2262803075,4423199.6829746645],[512592.1404388904,4423199.488695332],[512592.06955859455,4423199.2953892965],[512592.0137743446,4423199.103424528],[512591.9731923291,4423198.913166441],[512591.94788979826,4423198.724977205],[512591.93791491684,4423198.539215046],[512591.9432866725,4423198.356233575],[512591.96399484,4423198.1763811065],[512592,4423198],[512592.05123361474,4423197.827426008],[512592.117598158,4423197.658987633],[512592.1989673012,4423197.495005508],[512592.29518615355,4423197.335791783],[512592.406071557,4423197.18164953],[512592.53141243476,4423197.032872167],[512592.6709701935,4423196.8897429],[512592.82447917707,4423196.752534186],[512592.99164717225,4423196.621507205],[512593.1721559654,4423196.496911379],[512593.3656619478,4423196.37898388],[512593.57179676974,4423196.267949193],[512593.7901680418,4423196.164018675],[512594.02036008204,4423196.067390166],[512594.2619347067,4423195.978247603],[512594.5144320648,4423195.896760675],[512594.77737151313,4423195.823084496],[512595.0502525317,4423195.757359313],[512595.3325556759,4423195.699710237],[512595.62374356564,4423195.650247009],[512595.92326190823,4423195.609063781],[512596.2305405535,4423195.57623895],[512596.54499457905,4423195.5518350005],[512596.8660254038,4423195.535898385],[512597.1930219273,4423195.528459441],[512597.5253616931,4423195.529532329],[512597.8624120736,4423195.539115005],[512598.20353147417,4423195.55718923],[512598.5480705547,4423195.583720598],[512598.89537346544,4423195.618658605],[512599.2447790956,4423195.661936743],[512599.59562233166,4423195.713472633],[512599.94723532366,4423195.773168171],[512600.2989487561,4423195.840909722],[512600.6500931226,4423195.916568339],[512601,4423196],[512601.3480033205,4423196.091045888],[512601.69344064005,4423196.189532693],[512602.03565439914,4423196.295272939],[512602.37399317435,4423196.408065343],[512602.70781291864,4423196.5276951995],[512603.03647818713,4423196.653934785],[512603.35936334677,4423196.786543796],[512603.6758537674,4423196.925269803],[512603.9853469914,4423197.069848734],[512604.287253881,4423197.220005375],[512604.58099973906,4423197.375453893],[512604.8660254038,4423197.535898385],[512605.1417883126,4423197.701033434],[512605.4077635351,4423197.870544695],[512605.66344477236,4423198.044109496],[512605.9083453206,4423198.221397447],[512606.1419989978,4423198.402071068],[512606.3639610307,4423198.585786438],[512606.5738089021,4423198.7721938435],[512606.77114315465,4423198.960938447],[512606.95558815135,4423199.151660964],[512607.1267927907,4423199.343998343],[512607.28443117486,4423199.5375844585],[512607.42820323026,4423199.732050807],[512607.5578352786,4423199.927027213],[512607.673080558,4423200.122142527],[512607.7737196925,4423200.3170253355],[512607.8595611096,4423200.511304668],[512607.93044140545,4423200.7046107035],[512607.9862256554,4423200.896575472],[512608.0268076709,4423201.086833559],[512608.05211020174,4423201.275022795],[512608.06208508316,4423201.460784954],[512608.0567133275,4423201.643766425],[512608.03600516,4423201.8236188935],[512608,4423202]]},"kentos":{"layer":"Eğriler"}},
{"type":"Feature","properties":{},"geometry":{"type":"LineString","coordinates":[[512652.63274768565,4423200.575310647],[512652.5677455924,4423200.620539452],[512652.4978903023,4423200.6645954],[512652.4233138462,4423200.707395222],[512652.3441571781,4423200.748858023],[512652.26056990895,4423200.788905438],[512652.17271002394,4423200.827461772],[512652.08074358356,4423200.864454153],[512651.9848444101,4423200.899812662],[512651.8851937588,4423200.93347047],[512651.7819799755,4423200.965363962],[512651.67539814074,4423200.9954328565],[512651.5656497006,4423201.023620321],[512651.4529420863,4423201.049873081],[512651.33748832234,4423201.074141516],[512651.21950662334,4423201.096379759],[512651.09921998193,4423201.116545776],[512650.9768557472,4423201.134601452],[512650.8526451952,4423201.150512663],[512650.7268230914,4423201.164249334],[512650.5996272474,4423201.1757855015],[512650.471298071,4423201.185099363],[512650.3420781123,4423201.192173314],[512650.212211605,4423201.196993984],[512650.08194400475,4423201.199552262],[512649.9515215253,4423201.199843313],[512649.8211906731,4423201.197866585],[512649.69119778153,4423201.193625817],[512649.5617885451,4423201.187129023],[512649.43320755527,4423201.178388481],[512649.3056978379,4423201.167420713],[512649.1795003943,4423201.154246449],[512649.0548537453,4423201.138890587],[512648.9319934808,4423201.121382153],[512648.8111518141,4423201.101754237],[512648.6925571436,4423201.080043938],[512648.5764336203,4423201.05629229],[512648.46300072485,4423201.030544185],[512648.3524728524,4423201.002848287],[512648.2450589074,4423200.973256946],[512648.14096190885,4423200.941826088],[512648.04037860647,4423200.908615122],[512647.9434991088,4423200.873686817],[512647.8505065241,4423200.83710719],[512647.761576614,4423200.798945379],[512647.67687746155,4423200.759273513],[512647.59656915336,4423200.718166573]]},"kentos":{"layer":"Eğriler"}},
{"type":"Feature","properties":{},"geometry":{"type":"LineString","coordinates":[[512700,4423200],[512700.6158447265,4423200.983276367],[512701.2158203125,4423202.0458984375],[512701.80358886725,4423203.169555664],[512702.3828125,4423204.3359375],[512702.9571533203,4423205.526733398],[512703.5302734375,4423206.7236328125],[512704.10583496094,4423207.908325195],[512704.6875,4423209.0625],[512705.27893066406,4423210.16784668],[512705.8837890625,4423211.2060546875],[512706.5057373047,4423212.158813477],[512707.1484375,4423213.0078125],[512707.81555175787,4423213.734741211],[512708.5107421875,4423214.3212890625],[512709.2376708984,4423214.749145508],[512710,4423215],[512710.8093261718,4423215.015869141],[512711.669921875,4423214.775390625],[512712.5744628907,4423214.315185547],[512713.515625,4423213.671875],[512714.4860839844,4423212.882080078],[512715.478515625,4423211.982421875],[512716.4855957031,4423211.009521484],[512717.5,4423210],[512718.5144042969,4423208.990478516],[512719.521484375,4423208.017578125],[512720.5139160156,4423207.117919922],[512721.484375,4423206.328125],[512722.42553710943,4423205.684814453],[512723.330078125,4423205.224609375],[512724.19067382807,4423204.984130859],[512725,4423205],[512725.7623291015,4423205.250854492],[512726.4892578125,4423205.6787109375],[512727.18444824225,4423206.265258789],[512727.8515625,4423206.9921875],[512728.4942626953,4423207.841186523],[512729.1162109375,4423208.7939453125],[512729.72106933594,4423209.83215332],[512730.3125,4423210.9375],[512730.89416503906,4423212.091674805],[512731.4697265625,4423213.2763671875],[512732.0428466797,4423214.473266602],[512732.6171875,4423215.6640625],[512733.19641113287,4423216.830444336],[512733.7841796875,4423217.9541015625],[512734.3841552734,4423219.016723633],[512735,4423220]]},"kentos":{"layer":"Eğriler"}},
{"type":"Feature","properties":{},"geometry":{"type":"LineString","coordinates":[[512800,4423200],[512800.50139701436,4423199.837429616],[512801.20635752054,4423199.859648209],[512802.08372085576,4423200.049560152],[512803.1023263568,4423200.390069817],[512804.2310133608,4423200.864081578],[512805.43862120487,4423201.454499809],[512806.6939892262,4423202.144228883],[512807.9659567615,4423202.91617317],[512809.22336314816,4423203.753237047],[512810.4350477229,4423204.638324886],[512811.5698498231,4423205.554341058],[512812.59660878556,4423206.484189939],[512813.4841639475,4423207.410775901],[512814.2013546457,4423208.317003315],[512814.7170202175,4423209.185776557],[512815,4423210],[512815.05195075553,4423210.860429248],[512814.9100953209,4423211.860706691],[512814.59662214376,4423212.973066881],[512814.1337196717,4423214.16974437],[512813.5435763526,4423215.422973706],[512812.8483806344,4423216.704989443],[512812.0703209647,4423217.98802613],[512811.2315857911,4423219.244318319],[512810.3543635616,4423220.44610056],[512809.460842724,4423221.565607404],[512808.5732117259,4423222.575073404],[512807.7136590151,4423223.446733109],[512806.9043730393,4423224.15282107],[512806.16754224634,4423224.665571837],[512805.52535508404,4423224.957219964],[512805,4423225],[512804.436411228,4423224.642382939],[512803.8470873597,4423223.828046825],[512803.2447170234,4423222.6204347955],[512802.64198884775,4423221.082989996],[512802.05159146094,4423219.27915557],[512801.4862134916,4423217.272374656],[512800.9585435679,4423215.126090398],[512800.48127031827,4423212.903745936],[512800.06708237133,4423210.668784415],[512799.7286683552,4423208.484648975],[512799.4787168986,4423206.414782758],[512799.32991662965,4423204.522628907],[512799.29495617695,4423202.871630563],[512799.38652416895,4423201.525230871],[512799.6173092338,4423200.546872969],[512800,4423200]]},"kentos":{"layer":"Eğriler"}},
{"type":"Feature","properties":{"desen":"çapraz"},"geometry":{"type":"Polygon","coordinates":[[[512900,4423100],[512950,4423100],[512950,4423150],[512900,4423150],[512900,4423100]],[[512910,4423110],[512920,4423120],[512920,4423110],[512910,4423110]]]},"kentos":{"layer":"Parseller"}},
{"type":"Feature","properties":{"not":"katmanı listede yok"},"geometry":{"type":"Point","coordinates":[512001.5,4423001.5]}}
]}
