{"type":"FeatureCollection","name":"Kotlu pafta","crs":{"type":"name","properties":{"name":"urn:ogc:def:crs:EPSG::5256"}},"features":[
{"type":"Feature","properties":{"Ad":"P1"},"geometry":{"type":"Point","coordinates":[486512.3456,4420187.1234,1021.345]},"kentos":{"layer":"Kot çizgileri","label":"P1"}},
{"type":"Feature","properties":{},"geometry":{"type":"LineString","coordinates":[[486512.3456,4420187.1234,1021.345],[486562.3456,4420187.1234,1019.8765]]},"kentos":{"layer":"Kot çizgileri"}},
{"type":"Feature","properties":{"tur":"ucu kotsuz"},"geometry":{"type":"LineString","coordinates":[[486570,4420190],[486580,4420195,1018.5]]},"kentos":{"layer":"Kot çizgileri"}},
{"type":"Feature","properties":{},"geometry":{"type":"LineString","coordinates":[[486590,4420190],[486600,4420195]]},"kentos":{"layer":"Kot çizgileri"}},
{"type":"Feature","properties":{},"geometry":{"type":"LineString","coordinates":[[486600,4420200,10.5],[486610,4420210],[486620,4420215,0],[486630,4420225,-2.5]]},"kentos":{"layer":"Kot çizgileri"}},
{"type":"Feature","properties":{},"geometry":{"type":"LineString","coordinates":[[486700,4420300,100],[486710,4420310,101.5]]},"kentos":{"layer":"Kot çizgileri"}},
{"type":"Feature","properties":{"ada":"1","parsel":"1"},"geometry":{"type":"Polygon","coordinates":[[[486800,4420400,900],[486850,4420400,902.5],[486850,4420450],[486800,4420450,901.25],[486800,4420400,900]],[[486810,4420410,901],[486810,4420420,901.25],[486820,4420420,902],[486820,4420410,901.5],[486810,4420410,901]],[[486830,4420430],[486840,4420440],[486840,4420430],[486830,4420430]]]},"kentos":{"layer":"Parseller","label":"1/1"}},
{"type":"Feature","properties":{},"geometry":{"type":"Polygon","coordinates":[[[486900,4420400,1],[486940,4420400,2],[486940,4420430,3],[486900,4420400,1]]]},"kentos":{"layer":"Parseller"}},
{"type":"Feature","properties":{},"geometry":{"type":"LineString","coordinates":[[487000,4420100,100],[487000.0380530191,4420099.128442572,102.77777777777777],[487000.1519224699,4420098.263518224,105.55555555555556],[487000.3407417371,4420097.411809549,108.33333333333333],[487000.6030737921,4420096.579798567,111.11111111111111],[487000.93692212965,4420095.773817383,113.88888888888889],[487001.3397459622,4420095,116.66666666666666],[487001.8084795571,4420094.264235636,119.44444444444444],[487002.3395555688,4420093.572123903,122.22222222222223],[487002.92893218814,4420092.928932188,125],[487003.57212390314,4420092.339555569,127.77777777777777],[487004.2642356365,4420091.808479557,130.55555555555554],[487005,4420091.339745962,133.33333333333331],[487005.7738173826,4420090.936922129,136.11111111111111],[487006.57979856676,4420090.6030737925,138.88888888888889],[487007.41180954897,4420090.340741737,141.66666666666669],[487008.2635182233,4420090.15192247,144.44444444444446],[487009.12844257255,4420090.038053019,147.22222222222223],[487010,4420090,150],[487010.87155742745,4420090.038053019,152.77777777777777],[487011.7364817767,4420090.15192247,155.55555555555554],[487012.58819045103,4420090.340741737,158.33333333333334],[487013.42020143324,4420090.6030737925,161.11111111111111],[487014.2261826174,4420090.936922129,163.88888888888889],[487015,4420091.339745962,166.66666666666666],[487015.7357643635,4420091.808479557,169.44444444444446],[487016.42787609686,4420092.339555569,172.22222222222223],[487017.07106781186,4420092.928932188,175],[487017.6604444312,4420093.572123903,177.77777777777777],[487018.1915204429,4420094.264235636,180.55555555555554],[487018.6602540378,4420095,183.33333333333334],[487019.06307787035,4420095.773817383,186.11111111111111],[487019.3969262079,4420096.579798567,188.88888888888889],[487019.6592582629,4420097.411809549,191.66666666666666],[487019.8480775301,4420098.263518224,194.44444444444446],[487019.9619469809,4420099.128442572,197.22222222222223],[487020,4420100,200],[487020,4420120,300]]},"kentos":{"layer":"Kot çizgileri"}},
{"type":"Feature","properties":{},"geometry":{"type":"Polygon","coordinates":[[[487100,4420100,10],[487140,4420100],[487141.1874575772,4420101.289922787],[487142.2643384053,4420102.673499303],[487143.2232862962,4420104.141278318],[487144.0577506636,4420105.683233413],[487144.7620312696,4420107.28883147],[487145.33131716365,4420108.947104627],[487145.76171954576,4420110.646725198],[487146.0502983313,4420112.376083049],[487146.1950822345,4420114.123364914],[487146.1950822345,4420115.876635086],[487146.0502983313,4420117.623916951],[487145.76171954576,4420119.353274802],[487145.33131716365,4420121.052895373],[487144.7620312696,4420122.71116853],[487144.0577506636,4420124.316766587],[487143.2232862962,4420125.858721682],[487142.2643384053,4420127.326500697],[487141.1874575772,4420128.710077213],[487140,4420130,30],[487100,4420100,10]]]},"kentos":{"layer":"Parseller"}},
{"type":"Feature","properties":{"not":"kot sayısı köşe sayısına uymuyor"},"geometry":{"type":"LineString","coordinates":[[487200,4420100],[487210,4420100],[487210,4420110]]},"kentos":{"layer":"Kot çizgileri"}}
]}
