{"type":"FeatureCollection","name":"Parçalı alanlar","crs":{"type":"name","properties":{"name":"urn:ogc:def:crs:EPSG::5256"}},"features":[
{"type":"Feature","properties":{"ada":"101","parsel":"5"},"geometry":{"type":"MultiPolygon","coordinates":[[[[486500,4420100],[486550,4420100],[486550,4420150],[486500,4420150],[486500,4420100]],[[486510,4420110],[486520,4420120],[486520,4420110],[486510,4420110]]],[[[486600.125,4420100.25,900],[486630.75,4420100.25,902],[486630.75,4420130.5,901.5],[486600.125,4420130.5],[486600.125,4420100.25,900]],[[486610,4420110,900.5],[486610,4420120,900.75],[486620,4420120,901],[486610,4420110,900.5]]],[[[486660,4420100],[486680,4420100],[486680,4420120],[486660,4420100]]]]},"kentos":{"layer":"Parseller","label":"101/5"}},
{"type":"Feature","properties":{"tur":"yayli parca"},"geometry":{"type":"MultiPolygon","coordinates":[[[[486500,4420200],[486520,4420200],[486520,4420220],[486500,4420220],[486500,4420200]]],[[[486600,4420200,800],[486640,4420200,801],[486641.6307285525,4420201.334018434,801.0454545454545],[486643.14334219054,4420202.800606576,801.0909090909091],[486644.5270980154,4420204.389348409,801.1363636363636],[486645.7721683037,4420206.088960356,801.1818181818181],[486646.8697103057,4420207.887371419,801.2272727272727],[486647.81192904833,4420209.771808905,801.2727272727273],[486648.592132697,4420211.728889143,801.3181818181819],[486649.20478008204,4420213.744712542,801.3636363636364],[486649.64552005363,4420215.804962302,801.4090909090909],[486649.9112223841,4420217.895006098,801.4545454545455],[486650,4420220,801.5],[486649.9112223841,4420222.104993902,801.5454545454545],[486649.64552005363,4420224.195037698,801.5909090909091],[486649.20478008204,4420226.255287458,801.6363636363636],[486648.592132697,4420228.271110857,801.6818181818181],[486647.81192904833,4420230.228191095,801.7272727272727],[486646.8697103057,4420232.112628581,801.7727272727273],[486645.7721683037,4420233.911039644,801.8181818181819],[486644.5270980154,4420235.610651591,801.8636363636364],[486643.14334219054,4420237.199393424,801.9090909090909],[486641.6307285525,4420238.665981566,801.9545454545455],[486640,4420240,802],[486600,4420240,803],[486600,4420200,800]]]]},"kentos":{"layer":"Parseller"}},
{"type":"Feature","properties":{"tur":"tek parca"},"geometry":{"type":"Polygon","coordinates":[[[486700,4420200],[486720,4420220],[486700,4420220],[486700,4420200]]]},"kentos":{"layer":"Parseller"}}
]}
