{
  "type": "FeatureCollection",
  "name": "kotlu",
  "crs": { "type": "name", "properties": { "name": "urn:ogc:def:crs:EPSG::5256" } },
  "features": [
    {
      "type": "Feature",
      "kentos": { "layer": "Kot cizgisi", "label": "K-1" },
      "properties": { "tur": "iki konum, ikisi de kotlu" },
      "geometry": { "type": "LineString", "coordinates": [[486512.3456, 4420187.1234, 1021.345], [486562.3456, 4420187.1234, 1019.8765]] }
    },
    {
      "type": "Feature",
      "properties": { "tur": "iki konum, yalniz ilki kotlu" },
      "geometry": { "type": "LineString", "coordinates": [[486570.0, 4420190.0, 1018.5], [486580.0, 4420195.0]] }
    },
    {
      "type": "Feature",
      "properties": { "tur": "sifir ve eksi kot" },
      "geometry": { "type": "LineString", "coordinates": [[486600.0, 4420200.0, 10.5], [486610.0, 4420210.0, 11.25], [486620.0, 4420215.0, 0], [486630.0, 4420225.0, -2.5]] }
    },
    {
      "type": "Feature",
      "properties": { "tur": "karisik konumlar" },
      "geometry": { "type": "LineString", "coordinates": [[486640.0, 4420230.0], [486650.0, 4420240.0, 55.5], [486660.0, 4420245.0], [486670.0, 4420250.0, 57.25]] }
    },
    {
      "type": "Feature",
      "properties": { "tur": "coklu cizgi, bir uyesi kotlu" },
      "geometry": {
        "type": "MultiLineString",
        "coordinates": [
          [[486700.0, 4420300.0, 100.0], [486710.0, 4420310.0, 101.5], [486720.0, 4420320.0, 103.0]],
          [[486730.0, 4420330.0], [486740.0, 4420340.0], [486750.0, 4420350.0]]
        ]
      }
    },
    {
      "type": "Feature",
      "kentos": { "layer": "Parsel", "label": "P-7" },
      "properties": { "tur": "kotlu parsel: kotlu delik, kotsuz delik" },
      "geometry": {
        "type": "Polygon",
        "coordinates": [
          [[486800.0, 4420400.0, 900.0], [486850.0, 4420400.0, 902.5], [486850.0, 4420450.0, 905.0], [486800.0, 4420450.0, 901.25], [486800.0, 4420400.0, 900.0]],
          [[486810.0, 4420410.0, 901.0], [486820.0, 4420410.0, 901.5], [486820.0, 4420420.0, 902.0], [486810.0, 4420410.0, 901.0]],
          [[486830.0, 4420430.0], [486840.0, 4420430.0], [486840.0, 4420440.0], [486830.0, 4420430.0]]
        ]
      }
    },
    {
      "type": "Feature",
      "properties": { "tur": "dort sayili konumlar" },
      "geometry": { "type": "LineString", "coordinates": [[486900.0, 4420500.0, 800.0, 1.0], [486910.0, 4420510.0, 801.0, 2.0], [486920.0, 4420520.0, 802.0, 3.0]] }
    },
    {
      "type": "Feature",
      "properties": { "tur": "koleksiyon" },
      "geometry": {
        "type": "GeometryCollection",
        "geometries": [
          { "type": "LineString", "coordinates": [[487000.0, 4420600.0, 700.0], [487010.0, 4420610.0, 701.0]] },
          { "type": "MultiPolygon", "coordinates": [[[[487100.0, 4420700.0, 600.0], [487110.0, 4420700.0, 601.0], [487110.0, 4420710.0], [487100.0, 4420700.0, 600.0]]]] }
        ]
      }
    }
  ]
}
