$GPRMC,093100.00,A,3954.9456410,N,03550.5348419,E,0.02,0.0,041026,,,R*70
$GPGGA,093110.00,3954.9456393,N,03550.5348448,E,4,14,0.62,1061.284,M,36.874,M,1.0,0001*47
$GPGGA,093210.00,3954.9463015,N,03550.5512624,E,4,13,0.70,1061.902,M,36.874,M,1.0,0001*4F
$GPGSA,A,3,02,05,12,13,15,18,20,24,25,29,,,1.10,0.70,0.85*0B
$GPGGA,093310.00,3954.9626567,N,03550.5529682,E,5,11,0.95,1063.418,M,36.874,M,1.0,0001*45
$GPGGA,093410.00,3954.9634818,N,03550.5361975,E,2,09,1.40,1062.775,M,36.874,M,1.0,0001*47
$GPGGA,093500.00,3954.9523958,N,03550.5472112,E,0,04,9.90,,M,,M,,*61
$GPGGA,093510.00,3954.9523958,N,03550.5472112,E,4,12,0.80,1062.000,M,36.874,M,1.0,0001*00
